OBJECT_NAME,OBJECT_ID,EPOCH,MEAN_MOTION,ECCENTRICITY,INCLINATION,RA_OF_ASC_NODE,ARG_OF_PERICENTER,MEAN_ANOMALY,EPHEMERIS_TYPE,CLASSIFICATION_TYPE,NORAD_CAT_ID,ELEMENT_SET_NO,REV_AT_EPOCH,BSTAR,MEAN_MOTION_DOT,MEAN_MOTION_DDOT
CSC 1,2023-155G,2023-10-27T03:43:54.140736,14.99280737,.000176,97.6728,8.6918,326.5080,33.6032,0,U,58022,999,270,.41042E-3,.4952E-4,0
PRETTY,2023-155H,2023-10-27T05:09:21.604896,14.99972103,.0000732,97.6729,8.7671,159.3341,200.7912,0,U,58023,999,271,.85855E-3,.1062E-3,0
MACSAT (FINCH 1),2023-155J,2023-10-27T05:07:37.229376,15.00061871,.000119,97.6728,8.7686,136.6283,223.5035,0,U,58024,999,271,.77551E-3,.9608E-4,0
PVCC,2023-155K,2023-10-27T05:05:47.167872,15.00113058,.0002442,97.6725,8.7701,175.1770,184.9478,0,U,58025,999,271,.52969E-3,.655E-4,0
STARLINK-30514,2023-156A,2023-10-26T16:00:00.999936,15.75526558,.0000814,53.0509,135.7119,67.6016,249.8007,0,U,58028,999,392,-.50663E-2,-.723266E-2,0
STARLINK-30518,2023-156B,2023-10-26T16:00:00.999936,15.75545340,.0000863,53.0505,135.7105,67.9184,249.9911,0,U,58029,999,393,-.505E-2,-.721684E-2,0
STARLINK-30549,2023-156C,2023-10-26T16:00:00.999936,15.75361332,.0000983,53.0505,135.7053,66.8783,253.4009,0,U,58030,999,360,-.51977E-2,-.735598E-2,0
STARLINK-30556,2023-156D,2023-10-26T16:00:00.999936,15.75222476,.0001005,53.0506,135.7027,69.1546,252.5086,0,U,58031,999,392,-.53117E-2,-.746209E-2,0
STARLINK-30561,2023-156E,2023-10-26T16:00:00.999936,15.75085880,.0001054,53.0510,135.7004,66.8879,256.0806,0,U,58032,999,392,-.54231E-2,-.756388E-2,0
STARLINK-30562,2023-156F,2023-10-26T16:00:00.999936,15.74843369,.0001009,53.0508,135.6955,71.8087,253.4637,0,U,58033,999,392,-.56242E-2,-.77444E-2,0
STARLINK-30565,2023-156G,2023-10-26T16:00:00.999936,15.74681818,.0001002,53.0508,135.6915,60.4167,266.7067,0,U,58034,999,392,-.57595E-2,-.786349E-2,0
STARLINK-30438,2023-156H,2023-10-26T16:00:00.999936,15.74729190,.0000917,53.0507,135.6933,83.9949,242.3345,0,U,58035,999,360,-.57149E-2,-.782243E-2,0
STARLINK-30437,2023-156J,2023-10-26T16:00:00.999936,15.74427906,.0000934,53.0511,135.6875,62.5382,266.6210,0,U,58036,999,381,-.59623E-2,-.803377E-2,0
STARLINK-30533,2023-156K,2023-10-26T16:00:00.999936,15.74535012,.0001009,53.0508,135.6891,81.5178,246.7077,0,U,58037,999,392,-.58802E-2,-.796695E-2,0
STARLINK-30560,2023-156L,2023-10-26T16:00:00.999936,15.74895750,.0001078,53.0512,135.6981,75.0112,249.4239,0,U,58038,999,367,-.55809E-2,-.770617E-2,0
STARLINK-30559,2023-156M,2023-10-26T16:00:00.999936,15.74332311,.0001091,53.0512,135.6849,74.2656,256.3911,0,U,58039,999,392,-.60149E-2,-.806799E-2,0
STARLINK-30555,2023-156N,2023-10-26T16:00:00.999936,15.75357194,.0000861,53.0515,135.7087,65.8449,253.8306,0,U,58040,999,392,-.52006E-2,-.735824E-2,0
STARLINK-30542,2023-156P,2023-10-26T16:00:00.999936,15.74317807,.0000833,53.0513,135.6861,61.6354,268.4274,0,U,58041,999,392,-.60003E-2,-.804484E-2,0
STARLINK-30563,2023-156Q,2023-10-26T16:00:00.999936,15.74011302,.0000951,53.0514,135.6794,71.0212,262.1709,0,U,58042,999,392,-.6174E-2,-.815714E-2,0
STARLINK-30564,2023-156R,2023-10-26T16:00:00.999936,15.74218833,.0000709,53.0514,135.6831,63.5428,268.0029,0,U,58043,999,393,-.60882E-2,-.811982E-2,0
STARLINK-30547,2023-156S,2023-10-26T16:00:00.999936,15.74061239,.0000866,53.0513,135.6804,76.5018,255.9877,0,U,58044,999,392,-.62576E-2,-.827363E-2,0
STARLINK-30550,2023-156T,2023-10-26T16:00:00.999936,15.73918027,.0001234,53.0514,135.6779,72.3546,261.6083,0,U,58045,999,392,-.62305E-2,-.819548E-2,0
STARLINK-30548,2023-156U,2023-10-26T16:00:00.999936,15.73783848,.0001269,53.0516,135.6765,62.5664,272.1803,0,U,58046,999,387,-.60432E-2,-.792859E-2,0
STARLINK-30529,2023-156V,2023-10-26T16:00:00.999936,15.73438529,.0001284,53.0514,135.6729,79.9812,256.2375,0,U,58047,999,366,-.25154E-2,-.343179E-2,0
STARLINK-30554,2023-156W,2023-10-26T16:00:00.999936,15.73597286,.0001048,53.0514,135.6742,77.3449,258.1539,0,U,58048,999,382,-.41078E-2,-.550331E-2,0
PSYCHE,2023-157A,2023-10-13T14:28:09.729696,15.29658471,.04672,30.0000,47.5426,123.5100,359.9800,0,U,58049,999,0,0,.1209E-4,-.37902E-5
FALCON HEAVY R/B,2023-157B,2023-10-13T14:28:09.729696,15.29658471,.04672,30.0000,47.5426,123.5100,359.9800,0,U,58050,999,0,0,.1209E-4,-.37902E-5
STARLINK-30568,2023-158A,2023-10-26T16:00:00.999936,15.84405715,.0001667,42.9985,65.7905,277.3950,69.4036,0,U,58051,999,307,-.31789E-2,-.693577E-2,0
STARLINK-30575,2023-158B,2023-10-26T16:00:00.999936,15.84404259,.0001669,42.9986,65.7864,276.9117,71.6794,0,U,58052,999,322,-.32074E-2,-.699287E-2,0
STARLINK-30577,2023-158C,2023-10-26T16:00:00.999936,15.84386798,.0001518,42.9984,65.7656,283.5663,73.2085,0,U,58053,999,322,-.33333E-2,-.724017E-2,0
