CSC 1                   
1 58022U 23155G   23300.15548774  .00004952  00000+0  41042-3 0  9995
2 58022  97.6728   8.6918 0001760 326.5080  33.6032 14.99280737  2704
PRETTY                  
1 58023U 23155H   23300.21483339  .00010620  00000+0  85855-3 0  9997
2 58023  97.6729   8.7671 0000732 159.3341 200.7912 14.99972103  2713
MACSAT (FINCH 1)        
1 58024U 23155J   23300.21362534  .00009608  00000+0  77551-3 0  9999
2 58024  97.6728   8.7686 0001190 136.6283 223.5035 15.00061871  2714
PVCC                    
1 58025U 23155K   23300.21235148  .00006550  00000+0  52969-3 0  9999
2 58025  97.6725   8.7701 0002442 175.1770 184.9478 15.00113058  2716
STARLINK-30514          
1 58028U 23156A   23299.66667824 -.00723266  00000+0 -50663-2 0  9999
2 58028  53.0509 135.7119 0000814  67.6016 249.8007 15.75526558  3926
STARLINK-30518          
1 58029U 23156B   23299.66667824 -.00721684  00000+0 -50500-2 0  9992
2 58029  53.0505 135.7105 0000863  67.9184 249.9911 15.75545340  3937
STARLINK-30549          
1 58030U 23156C   23299.66667824 -.00735598  00000+0 -51977-2 0  9992
2 58030  53.0505 135.7053 0000983  66.8783 253.4009 15.75361332  3606
STARLINK-30556          
1 58031U 23156D   23299.66667824 -.00746209  00000+0 -53117-2 0  9992
2 58031  53.0506 135.7027 0001005  69.1546 252.5086 15.75222476  3923
STARLINK-30561          
1 58032U 23156E   23299.66667824 -.00756388  00000+0 -54231-2 0  9990
2 58032  53.0510 135.7004 0001054  66.8879 256.0806 15.75085880  3926
STARLINK-30562          
1 58033U 23156F   23299.66667824 -.00774440  00000+0 -56242-2 0  9994
2 58033  53.0508 135.6955 0001009  71.8087 253.4637 15.74843369  3921
STARLINK-30565          
1 58034U 23156G   23299.66667824 -.00786349  00000+0 -57595-2 0  9998
2 58034  53.0508 135.6915 0001002  60.4167 266.7067 15.74681818  3927
STARLINK-30438          
1 58035U 23156H   23299.66667824 -.00782243  00000+0 -57149-2 0  9993
2 58035  53.0507 135.6933 0000917  83.9949 242.3345 15.74729190  3609
STARLINK-30437          
1 58036U 23156J   23299.66667824 -.00803377  00000+0 -59623-2 0  9995
2 58036  53.0511 135.6875 0000934  62.5382 266.6210 15.74427906  3816
STARLINK-30533          
1 58037U 23156K   23299.66667824 -.00796695  00000+0 -58802-2 0  9998
2 58037  53.0508 135.6891 0001009  81.5178 246.7077 15.74535012  3929
STARLINK-30560          
1 58038U 23156L   23299.66667824 -.00770617  00000+0 -55809-2 0  9999
2 58038  53.0512 135.6981 0001078  75.0112 249.4239 15.74895750  3677
STARLINK-30559          
1 58039U 23156M   23299.66667824 -.00806799  00000+0 -60149-2 0  9994
2 58039  53.0512 135.6849 0001091  74.2656 256.3911 15.74332311  3921
STARLINK-30555          
1 58040U 23156N   23299.66667824 -.00735824  00000+0 -52006-2 0  9999
2 58040  53.0515 135.7087 0000861  65.8449 253.8306 15.75357194  3928
STARLINK-30542          
1 58041U 23156P   23299.66667824 -.00804484  00000+0 -60003-2 0  9995
2 58041  53.0513 135.6861 0000833  61.6354 268.4274 15.74317807  3926
STARLINK-30563          
1 58042U 23156Q   23299.66667824 -.00815714  00000+0 -61740-2 0  9993
2 58042  53.0514 135.6794 0000951  71.0212 262.1709 15.74011302  3927
STARLINK-30564          
1 58043U 23156R   23299.66667824 -.00811982  00000+0 -60882-2 0  9993
2 58043  53.0514 135.6831 0000709  63.5428 268.0029 15.74218833  3935
STARLINK-30547          
1 58044U 23156S   23299.66667824 -.00827363  00000+0 -62576-2 0  9996
2 58044  53.0513 135.6804 0000866  76.5018 255.9877 15.74061239  3929
STARLINK-30550          
1 58045U 23156T   23299.66667824 -.00819548  00000+0 -62305-2 0  9993
2 58045  53.0514 135.6779 0001234  72.3546 261.6083 15.73918027  3920
STARLINK-30548          
1 58046U 23156U   23299.66667824 -.00792859  00000+0 -60432-2 0  9998
2 58046  53.0516 135.6765 0001269  62.5664 272.1803 15.73783848  3870
STARLINK-30529          
1 58047U 23156V   23299.66667824 -.00343179  00000+0 -25154-2 0  9998
2 58047  53.0514 135.6729 0001284  79.9812 256.2375 15.73438529  3660
STARLINK-30554          
1 58048U 23156W   23299.66667824 -.00550331  00000+0 -41078-2 0  9992
2 58048  53.0514 135.6742 0001048  77.3449 258.1539 15.73597286  3829
PSYCHE                  
1 58049U 23157A   23286.60289039  .00001209 -37902-5  00000+0 0  9990
2 58049  30.0000  47.5426 0467200 123.5100 359.9800 15.29658471    02
FALCON HEAVY R/B        
1 58050U 23157B   23286.60289039  .00001209 -37902-5  00000+0 0  9992
2 58050  30.0000  47.5426 0467200 123.5100 359.9800 15.29658471    04
STARLINK-30568          
1 58051U 23158A   23299.66667824 -.00693577  00000+0 -31789-2 0  9996
2 58051  42.9985  65.7905 0001667 277.3950  69.4036 15.84405715  3071
STARLINK-30575          
1 58052U 23158B   23299.66667824 -.00699287  00000+0 -32074-2 0  9999
2 58052  42.9986  65.7864 0001669 276.9117  71.6794 15.84404259  3224
STARLINK-30577          
1 58053U 23158C   23299.66667824 -.00724017  00000+0 -33333-2 0  9999
2 58053  42.9984  65.7656 0001518 283.5663  73.2085 15.84386798  3223
